[{"OBJECT_NAME":"ZHUHAI-1 OVS-02","OBJECT_ID":"2018-040B","EPOCH":"2026-03-09T23:28:43.397184","MEAN_MOTION":15.23701521,"ECCENTRICITY":0.00020716,"INCLINATION":97.0496,"RA_OF_ASC_NODE":92.136,"ARG_OF_PERICENTER":226.172,"MEAN_ANOMALY":133.9347,"EPHEMERIS_TYPE":0,"CLASSIFICATION_TYPE":"U","NORAD_CAT_ID":43440,"ELEMENT_SET_NO":999,"REV_AT_EPOCH":43760,"BSTAR":0.0003025193,"MEAN_MOTION_DOT":7.199e-5,"MEAN_MOTION_DDOT":0},{"OBJECT_NAME":"STARLINK-30135","OBJECT_ID":"2023-079V","EPOCH":"2026-03-09T22:00:01.999584","MEAN_MOTION":15.18771874,"ECCENTRICITY":0.00020934,"INCLINATION":43,"RA_OF_ASC_NODE":105.5533,"ARG_OF_PERICENTER":301.1686,"MEAN_ANOMALY":80.9348,"EPHEMERIS_TYPE":0,"CLASSIFICATION_TYPE":"U","NORAD_CAT_ID":56842,"ELEMENT_SET_NO":999,"REV_AT_EPOCH":578,"BSTAR":0.059413815,"MEAN_MOTION_DOT":0.01369076,"MEAN_MOTION_DDOT":0}]
